C/2020 H8 (PANSTARRS),e,99.7012,68.4380,128.9130,600.0277,0.0000671,0.99221293,0.0000,06/04.5591/2020,2000,g 10.5,4.0
# From MPEC 2022-ED3
A/2020 H9,e,137.8791,213.1815,312.7818,365.2189,0.0001412,0.99296303,0.0000,12/21.8344/2019,2000,g 18.0,2.0
# From MPEC 2023-HN7
C/2020 H11 (PANSTARRS-Lemmon),h,09/14.5192/2020,151.3924,303.0446,91.4397,1.001735,7.625000,2000,8.5,4.0
# From MPEC 2023-KD6
C/2020 J1 (SONEAR),h,04/18.5646/2021,142.3059,226.6103,341.7041,1.000555,3.350824,2000,8.5,3.2
# From MPEC 2024-A43
C/2020 K1 (PANSTARRS),e,89.6733,94.3606,213.9832,12765,0.0000007,0.99975925,0.0000,05/09.0703/2023,2000,g  5.5,4.0
# From MPEC 2021-N06
C/2020 K2 (PANSTARRS),h,08/06.0559/2020,91.0101,288.4079,67.3472,1.002894,8.880591,2000,10.8,4.0
# From MPEC 2020-KF9
C/2020 K3 (Leonard),p,06/01.0032/2020,129.0152,64.4924,1.583069,28.3546,2000,14.5,4.0
# From MPEC 2020-L06
C/2020 K4 (PANSTARRS),e,125.5851,264.2369,308.8625,23.97054,0.0083982,0.92692308,11.7806,01/06.0/2024,2000,g 16.5,4.0
# From MPEC 2021-R75
C/2020 K5 (PANSTARRS),h,06/05.2491/2021,67.0921,86.1534,249.6241,1.001230,1.537775,2000,11.0,4.0
# From MPEC 2023-N01
C/2020 K6 (Rankin),h,09/15.7221/2021,103.6456,291.5716,44.3323,1.003487,5.868513,2000,8.0,4.0
# From MPEC 2023-A50
C/2020 K7 (PANSTARRS),e,32.0438,286.0993,358.2196,97.26929,0.0010274,0.93426299,1.5736,01/06.0/2024,2000,g  8.0,4.0
# From MPEC 2021-P47
C/2020 K8 (Catalina-ATLAS),h,09/15.1029/2020,31.4454,181.5047,259.9688,1.000223,0.471290,2000,15.0,3.2
# From MPEC 2021-BE3
P/2020 K9 (Lemmon-PANSTARRS),e,23.2047,166.3121,197.0554,4.204487,0.1143232,0.32097406,120.9110,01/06.0/2024,2000,g 12.5,4.0
# From MPEC 2023-C45
P/2020 M1 (PANSTARRS),e,8.5338,142.6054,72.6276,5.316079,0.0804113,0.47313159,118.4914,01/06.0/2024,2000,g 14.5,4.0
# From MPEC 2022-H30
C/2020 M3 (ATLAS),e,23.4696,71.1823,328.5673,27.18595,0.0069532,0.95329825,8.1145,01/06.0/2024,2000,g 14.5,4.0
# From MPEC 2023-N01
A/2020 M4,h,11/23.9508/2020,160.1202,348.6236,104.5981,1.000967,5.948053,2000,14.5,2.0
# From MPC xxxxx
P/2020 MK4 (PANSTARRS),e,6.7900,0.7058,95.9785,6.214343,0.0636226,0.01295850,281.2429,01/06.0/2024,2000,g  8.0,4.0
# From MPEC 2023-FK0
C/2020 M5 (ATLAS),h,08/19.8611/2021,93.2080,352.0779,126.2773,1.000331,3.001337,2000,9.0,4.0
# From MPEC 2022-GA9
C/2020 N1 (PANSTARRS),h,03/12.5730/2021,29.7342,279.8980,186.7738,1.000570,1.317386,2000,12.5,4.0
# From MPEC 2021-P47
C/2020 N2 (ATLAS),e,161.0402,257.1630,331.3002,103.0298,0.0009425,0.98261593,0.0000,08/24.0707/2020,2000,g 16.0,3.2
# From MPEC 2023-XP6
C/2020 O2 (Amaral),h,08/28.2212/2021,71.7622,256.7850,10.2742,1.000991,4.861572,2000,8.0,3.2
# From MPEC 2023-C45
P/2020 O3 (PANSTARRS),e,8.4445,266.8186,81.5611,4.647199,0.0983823,0.10278874,105.4513,01/06.0/2024,2000,g 12.0,4.0
# From MPEC 2021-BE3
C/2020 P1 (NEOWISE),h,10/20.6948/2020,45.1661,53.4762,8.8970,1.000358,0.340655,2000,14.0,3.2
# From MPEC 2023-O39
C/2020 P3 (ATLAS),h,04/21.8566/2021,61.8860,19.4685,82.2964,1.002385,6.813082,2000,6.0,4.0
# From MPEC 2022-PB4
C/2020 PV6 (PANSTARRS),e,128.2073,329.1472,71.3587,42.02656,0.0036176,0.94542167,3.0094,01/06.0/2024,2000,g 10.0,4.0
# From MPEC 2022-L66
C/2020 Q1 (Borisov),e,142.9430,52.3973,9.9709,61.50921,0.0020431,0.97857125,0.0000,08/14.6837/2020,2000,g 14.0,4.0
# From MPEC 2023-CD7
C/2020 Q2 (PANSTARRS),e,3.3357,179.8230,118.2823,10.62780,0.0284472,0.49056957,40.9288,01/06.0/2024,2000,g 12.0,3.2
# From MPEC 2022-X67
C/2020 R2 (PANSTARRS),e,53.2277,195.0971,211.8289,420.9572,0.0001141,0.98884823,0.0000,02/25.1437/2022,2000,g  9.0,4.0
# From MPEC 2022-K19
C/2020 R4 (ATLAS),e,164.4382,323.2644,46.6381,99.45589,0.0009937,0.98969449,0.0000,03/02.3243/2021,2000,g 13.5,4.0
# From MPEC 2023-C45
P/2020 R5 (PANSTARRS),e,11.4418,272.9564,82.7048,4.989704,0.0884284,0.31411309,116.4290,01/06.0/2024,2000,g  9.5,6.0
# From MPEC 2021-Y10
C/2020 R6 (Rankin),e,82.8241,12.1854,271.9975,303.7560,0.0001862,0.98967493,0.0000,09/07.8866/2019,2000,g 11.0,4.0
# From MPEC 2024-A43
C/2020 R7 (ATLAS),h,09/16.2294/2022,114.9015,268.2941,347.8338,1.000215,2.955539,2000,7.0,3.2
# From MPEC 2021-BE3
P/2020 S1 (PANSTARRS),e,13.7237,129.5175,255.0375,5.996646,0.0671184,0.50761560,72.7134,01/06.0/2024,2000,g 14.0,4.0
# From MPEC 2022-ST7
C/2020 S2 (PANSTARRS),e,22.4021,197.6946,202.3504,10.23450,0.0301026,0.82819258,33.4046,01/06.0/2024,2000,g 17.0,4.0
# From MPEC 2022-C56
C/2020 S3 (Erasmus),e,20.0195,222.5943,350.0717,147.0969,0.0005525,0.99731002,0.0000,12/11.7045/2020,2000,g 13.5,3.2
# From MPEC 2023-XP6
C/2020 S4 (PANSTARRS),h,02/09.2723/2023,20.5675,117.7106,21.0022,1.001754,3.369700,2000,8.5,3.2
# From MPEC 2021-BE3
P/2020 S5 (PANSTARRS),e,12.3458,316.0562,53.2207,4.055796,0.1206674,0.33817794,150.2189,01/06.0/2024,2000,g 14.5,4.0
# From MPEC 2021-BE3
P/2020 S7 (PANSTARRS),e,16.0834,328.0934,40.5900,5.033134,0.0872864,0.41040338,99.7910,01/06.0/2024,2000,g 14.5,4.0
# From MPEC 2021-P47
C/2020 S8 (Lemmon),e,108.5281,24.0642,160.2262,254.0213,0.0002434,0.99071216,0.0000,04/10.7312/2021,2000,g 12.5,4.0
# From MPEC 2022-TD3
C/2020 T2 (Palomar),e,27.8375,83.0605,150.4396,294.4923,0.0001950,0.99301065,0.0000,07/10.7760/2021,2000,g 11.0,3.2
# From MPEC 2021-N06
P/2020 T3 (PANSTARRS),e,7.2985,73.9935,357.0433,3.516701,0.1494517,0.59233209,161.3787,01/06.0/2024,2000,g 18.0,3.2
# From MPEC 2021-N06
C/2020 T4 (PANSTARRS),h,07/05.4715/2021,83.8522,50.6197,79.5931,1.000336,2.190722,2000,13.0,3.2
# From MPEC 2021-BE3
C/2020 T5 (Lemmon),e,66.5469,237.8309,90.3566,695.5927,0.0000537,0.99727820,0.0000,10/08.9478/2020,2000,g 16.0,4.0
# From MPEC 2021-N06
P/2020 U2 (PANSTARRS),e,6.4202,342.8801,84.6644,3.777981,0.1342191,0.51132394,148.3850,01/06.0/2024,2000,g 18.0,4.0
# From MPEC 2021-W31
C/2020 U3 (Rankin),e,30.1478,282.6551,124.3652,67.05700,0.0017949,0.96601636,1.9092,01/06.0/2024,2000,g 15.0,4.0
# From MPEC 2023-W26
C/2020 U4 (PANSTARRS),h,04/09.4155/2022,167.0182,120.3526,70.0672,1.000336,5.359455,2000,7.0,4.0
# From MPEC 2023-SQ0
C/2020 U5 (PANSTARRS),e,97.2846,107.3193,75.4442,3984,0.0000039,0.99905705,0.0000,04/28.0111/2022,2000,g  8.0,4.0
# From MPEC 2024-A43
C/2020 V2 (ZTF),h,05/08.4707/2023,131.6116,212.3710,162.3940,1.000873,2.227573,2000,4.9,4.0
# From MPEC 2023-D72
P/2020 V3 (PANSTARRS),e,23.0320,198.2548,249.4915,8.393651,0.0405301,0.25747707,42.9110,01/06.0/2024,2000,g  8.3,4.0
# From MPEC 2023-KD6
P/2020 V4 (Rankin),e,14.2440,203.4834,257.0863,9.378783,0.0343150,0.45098139,30.9201,01/06.0/2024,2000,g  9.0,4.0
# From MPEC 2021-BE3
P/2020 W1 (Rankin),e,10.7826,124.3948,265.1816,7.219615,0.0508081,0.26625596,69.4075,01/06.0/2024,2000,g 10.0,4.0
# From MPEC 2021-BE3
C/2020 W5 (Lemmon),h,11/30.3773/2020,88.6082,75.4751,24.5186,1.001351,3.366143,2000,15.0,4.0
# From MPEC 2023-VM5
P/2020 WJ5 (Lemmon),e,22.2909,177.8010,338.0846,6.015111,0.0668096,0.17154464,61.4584,01/06.0/2024,2000,g  8.5,4.0
# From MPEC 2021-P47
P/2020 X1 (ATLAS),e,31.6878,56.0447,323.4372,4.532630,0.1021359,0.36525520,129.1024,01/06.0/2024,2000,g 13.0,4.0
# From MPEC 2024-A43
C/2020 X2 (ATLAS),e,18.1845,105.3948,347.4276,16.48217,0.0147293,0.76778423,16.8729,01/06.0/2024,2000,g 10.6,4.0
# From MPEC 2021-S45
C/2020 X4 (Leonard),e,80.6263,161.9095,140.3171,40.77223,0.0037858,0.87187723,4.3386,01/06.0/2024,2000,g  9.0,4.0
# From MPEC 2024-A43
C/2020 Y2 (ATLAS),e,101.2155,26.5320,266.4213,3175,0.0000055,0.99900975,0.0000,06/18.5389/2022,2000,g  6.5,4.0
# From MPEC 2021-R75
C/2020 Y3 (ATLAS),e,83.1061,191.4263,341.9066,140.2257,0.0005936,0.98578015,0.0000,12/03.2705/2020,2000,g 13.5,4.0
# From MPEC 2023-CD7
C/2021 A1 (Leonard),h,01/03.3392/2022,132.7386,255.9061,225.1353,1.000087,0.616109,2000,8.5,4.0
# From MPEC 2022-F14
C/2021 A2 (NEOWISE),e,107.0054,125.1546,338.7693,229.2865,0.0002839,0.99384007,0.0000,01/22.2742/2021,2000,g 13.5,4.0
# From MPEC 2022-ED3
C/2021 A4 (NEOWISE),e,111.5584,307.1057,204.7184,42.38875,0.0035713,0.97291122,0.0000,03/19.5964/2021,2000,g 16.0,4.0
# From MPEC 2021-BE3
P/2021 A5 (PANSTARRS),e,18.1855,328.8285,61.3535,3.047575,0.1852560,0.13992029,212.8078,01/06.0/2024,2000,g 15.0,4.0
# From MPEC 2023-O39
C/2021 A6 (PANSTARRS),e,75.5911,164.0643,351.6152,8851,0.0000012,0.99910462,0.0000,05/02.9617/2021,2000,g  7.0,4.0
# From MPEC 2022-M88
C/2021 A7 (NEOWISE),e,78.1654,154.4786,355.9895,1923,0.0000117,0.99897786,0.0000,07/15.1438/2021,2000,g 10.0,4.0
# From MPEC 2024-A43
C/2021 A9 (PANSTARRS),h,12/02.0044/2023,158.0135,314.8346,211.4783,1.001240,7.760040,2000,6.0,4.0
# From MPEC 2021-N06
C/2021 A10 (NEOWISE),e,151.9433,188.7294,82.4901,89.68283,0.0011605,0.98591589,0.0000,03/15.1183/2021,2000,g 19.0,4.0
# From MPEC 2022-L66
C/2021 B2 (PANSTARRS),e,38.0819,120.5063,334.9969,375.9528,0.0001352,0.99331919,0.0000,05/04.5394/2021,2000,g 14.0,4.0
# From MPEC 2021-N06
C/2021 B3 (NEOWISE),e,119.4763,67.2769,293.5352,34.31440,0.0049033,0.93699167,5.0593,01/06.0/2024,2000,g 13.5,4.0
# From MPEC 2023-KD6
C/2021 C1 (Rankin),e,143.0436,186.8846,336.1753,4045,0.0000038,0.99914093,0.0000,12/06.6929/2020,2000,g 11.5,4.0
# From MPEC 2021-U31
P/2021 C2 (PANSTARRS),e,21.9394,66.4567,78.7009,9.536314,0.0334683,0.48766648,35.0205,01/06.0/2024,2000,g 12.0,4.0
# From MPEC 2021-N06
C/2021 C3 (Catalina),e,122.1704,181.9133,357.0351,61.26519,0.0020553,0.96288994,2.1748,01/06.0/2024,2000,g 14.0,4.0
# From MPEC 2022-M88
C/2021 C4 (ATLAS),e,132.8495,194.2713,320.1461,17855,0.0000004,0.99974803,0.0000,01/16.8622/2021,2000,g  9.0,4.0
# From MPEC 2023-R20
C/2021 C5 (PANSTARRS),e,50.7864,323.6754,270.9200,1918,0.0000117,0.99830982,0.0000,02/11.0332/2023,2000,g  9.0,4.0
# From MPEC 2022-YB4
C/2021 C6 (Lemmon),e,164.6062,332.3342,203.8206,9466,0.0000011,0.99965365,0.0000,11/12.7310/2021,2000,g 12.0,4.0
# From MPEC 2022-F14
C/2021 D1 (SWAN),e,31.4150,311.2624,72.2903,101.2438,0.0009675,0.99107400,0.0000,02/27.7519/2021,2000,g 13.0,4.0
# From MPEC 2023-J29
C/2021 D2 (ZTF),h,02/03.9510/2022,83.7998,305.6661,125.0296,1.001630,2.946453,2000,9.0,4.0
# From MPEC 2022-UY9
